FIREFLY-1               
1 62701U 25009CW  26192.89557368  .00000903  00000+0  92820-4 0  9999
2 62701  97.7062 270.5133 0002401 239.0809 121.0174 14.92736225 81004
FIREFLY-2               
1 62704U 25009CZ  26192.87346688  .00000496  00000+0  53441-4 0  9994
2 62704  97.7019 270.2633 0006696  14.0545 346.0860 14.92730959 81008
FIREFLY-3               
1 62710U 25009DF  26192.91875579  .00000565  00000+0  59966-4 0  9997
2 62710  97.7053 270.5659 0004830  80.6770 279.4995 14.92796450 81029
