{"fetched_at":"2026-07-12T07:15:36.966Z","source":"https://celestrak.org/NORAD/elements/gp.php?NAME=FIREFLY&FORMAT=JSON","constellation":"pixxel","records":[{"OBJECT_NAME":"FIREFLY-1","OBJECT_ID":"2025-009CW","EPOCH":"2026-07-11T21:29:37.565952","CLASSIFICATION_TYPE":"U","MEAN_MOTION":14.92736225,"ECCENTRICITY":0.00024015,"INCLINATION":97.7062,"RA_OF_ASC_NODE":270.5133,"ARG_OF_PERICENTER":239.0809,"MEAN_ANOMALY":121.0174,"EPHEMERIS_TYPE":0,"NORAD_CAT_ID":62701,"ELEMENT_SET_NO":999,"REV_AT_EPOCH":8100,"BSTAR":0.000092820213,"MEAN_MOTION_DOT":0.00000903,"MEAN_MOTION_DDOT":0},{"OBJECT_NAME":"FIREFLY-2","OBJECT_ID":"2025-009CZ","EPOCH":"2026-07-11T20:57:47.538432","CLASSIFICATION_TYPE":"U","MEAN_MOTION":14.92730959,"ECCENTRICITY":0.00066968,"INCLINATION":97.7019,"RA_OF_ASC_NODE":270.2633,"ARG_OF_PERICENTER":14.0545,"MEAN_ANOMALY":346.086,"EPHEMERIS_TYPE":0,"NORAD_CAT_ID":62704,"ELEMENT_SET_NO":999,"REV_AT_EPOCH":8100,"BSTAR":0.000053441471,"MEAN_MOTION_DOT":0.00000496,"MEAN_MOTION_DDOT":0},{"OBJECT_NAME":"FIREFLY-3","OBJECT_ID":"2025-009DF","EPOCH":"2026-07-11T22:03:00.500256","CLASSIFICATION_TYPE":"U","MEAN_MOTION":14.9279645,"ECCENTRICITY":0.00048304,"INCLINATION":97.7053,"RA_OF_ASC_NODE":270.5659,"ARG_OF_PERICENTER":80.677,"MEAN_ANOMALY":279.4995,"EPHEMERIS_TYPE":0,"NORAD_CAT_ID":62710,"ELEMENT_SET_NO":999,"REV_AT_EPOCH":8102,"BSTAR":0.000059965561,"MEAN_MOTION_DOT":0.00000565,"MEAN_MOTION_DDOT":0}]}
